[{"OBJECT_NAME":"ONEWEB-0255","OBJECT_ID":"2021-060G","EPOCH":"2025-08-15T11:02:58.890048","MEAN_MOTION":13.16592904,"ECCENTRICITY":0.0001876,"INCLINATION":87.9022,"RA_OF_ASC_NODE":289.7336,"ARG_OF_PERICENTER":88.9265,"MEAN_ANOMALY":271.2081,"EPHEMERIS_TYPE":0,"CLASSIFICATION_TYPE":"U","NORAD_CAT_ID":48973,"ELEMENT_SET_NO":999,"REV_AT_EPOCH":19943,"BSTAR":0.00013825,"MEAN_MOTION_DOT":6.6e-7,"MEAN_MOTION_DDOT":0},{"OBJECT_NAME":"ONEWEB-0256","OBJECT_ID":"2021-060H","EPOCH":"2025-08-15T09:51:09.993312","MEAN_MOTION":13.16594373,"ECCENTRICITY":0.000213,"INCLINATION":87.9023,"RA_OF_ASC_NODE":289.7542,"ARG_OF_PERICENTER":97.4336,"MEAN_ANOMALY":262.7037,"EPHEMERIS_TYPE":0,"CLASSIFICATION_TYPE":"U","NORAD_CAT_ID":48974,"ELEMENT_SET_NO":999,"REV_AT_EPOCH":19939,"BSTAR":0.00021267,"MEAN_MOTION_DOT":9.4e-7,"MEAN_MOTION_DDOT":0},{"OBJECT_NAME":"ONEWEB-0257","OBJECT_ID":"2021-060J","EPOCH":"2025-08-15T14:16:46.572672","MEAN_MOTION":13.1659284,"ECCENTRICITY":0.000204,"INCLINATION":87.9026,"RA_OF_ASC_NODE":289.685,"ARG_OF_PERICENTER":90.3183,"MEAN_ANOMALY":269.8181,"EPHEMERIS_TYPE":0,"CLASSIFICATION_TYPE":"U","NORAD_CAT_ID":48975,"ELEMENT_SET_NO":999,"REV_AT_EPOCH":19937,"BSTAR":-9.6134e-5,"MEAN_MOTION_DOT":-2.4e-7,"MEAN_MOTION_DDOT":0},{"OBJECT_NAME":"ONEWEB-0258","OBJECT_ID":"2021-060K","EPOCH":"2025-08-15T14:19:04.203552","MEAN_MOTION":13.16593758,"ECCENTRICITY":0.000195,"INCLINATION":87.9023,"RA_OF_ASC_NODE":289.7088,"ARG_OF_PERICENTER":97.6975,"MEAN_ANOMALY":262.4377,"EPHEMERIS_TYPE":0,"CLASSIFICATION_TYPE":"U","NORAD_CAT_ID":48976,"ELEMENT_SET_NO":999,"REV_AT_EPOCH":19938,"BSTAR":-9.5503e-5,"MEAN_MOTION_DOT":-2.4e-7,"MEAN_MOTION_DDOT":0},{"OBJECT_NAME":"ONEWEB-0259","OBJECT_ID":"2021-060L","EPOCH":"2025-08-15T14:09:56.116512","MEAN_MOTION":13.16593448,"ECCENTRICITY":0.0001885,"INCLINATION":87.9028,"RA_OF_ASC_NODE":289.6952,"ARG_OF_PERICENTER":92.5184,"MEAN_ANOMALY":267.6163,"EPHEMERIS_TYPE":0,"CLASSIFICATION_TYPE":"U","NORAD_CAT_ID":48977,"ELEMENT_SET_NO":999,"REV_AT_EPOCH":19941,"BSTAR":-0.00016591,"MEAN_MOTION_DOT":-5.1e-7,"MEAN_MOTION_DDOT":0},{"OBJECT_NAME":"ONEWEB-0260","OBJECT_ID":"2021-060M","EPOCH":"2025-08-15T10:18:31.698720","MEAN_MOTION":13.16594117,"ECCENTRICITY":0.0002539,"INCLINATION":87.902,"RA_OF_ASC_NODE":289.7519,"ARG_OF_PERICENTER":94.6552,"MEAN_ANOMALY":265.4868,"EPHEMERIS_TYPE":0,"CLASSIFICATION_TYPE":"U","NORAD_CAT_ID":48978,"ELEMENT_SET_NO":999,"REV_AT_EPOCH":19937,"BSTAR":-8.1853e-5,"MEAN_MOTION_DOT":-1.8e-7,"MEAN_MOTION_DDOT":0},{"OBJECT_NAME":"ONEWEB-0261","OBJECT_ID":"2021-060N","EPOCH":"2025-08-15T11:24:37.986624","MEAN_MOTION":13.16595398,"ECCENTRICITY":0.0002165,"INCLINATION":87.9023,"RA_OF_ASC_NODE":289.7445,"ARG_OF_PERICENTER":84.3347,"MEAN_ANOMALY":275.8031,"EPHEMERIS_TYPE":0,"CLASSIFICATION_TYPE":"U","NORAD_CAT_ID":48979,"ELEMENT_SET_NO":999,"REV_AT_EPOCH":19943,"BSTAR":0.00029665,"MEAN_MOTION_DOT":1.26e-6,"MEAN_MOTION_DDOT":0},{"OBJECT_NAME":"ONEWEB-0262","OBJECT_ID":"2021-060P","EPOCH":"2025-08-15T05:27:51.579648","MEAN_MOTION":13.16593667,"ECCENTRICITY":0.0001715,"INCLINATION":87.9026,"RA_OF_ASC_NODE":289.7565,"ARG_OF_PERICENTER":91.6631,"MEAN_ANOMALY":268.4697,"EPHEMERIS_TYPE":0,"CLASSIFICATION_TYPE":"U","NORAD_CAT_ID":48980,"ELEMENT_SET_NO":999,"REV_AT_EPOCH":19936,"BSTAR":-9.9614e-5,"MEAN_MOTION_DOT":-2.5e-7,"MEAN_MOTION_DDOT":0},{"OBJECT_NAME":"ONEWEB-0263","OBJECT_ID":"2021-060Q","EPOCH":"2025-08-15T09:52:19.153920","MEAN_MOTION":13.16595648,"ECCENTRICITY":0.0001906,"INCLINATION":87.9024,"RA_OF_ASC_NODE":289.7431,"ARG_OF_PERICENTER":82.4844,"MEAN_ANOMALY":277.6504,"EPHEMERIS_TYPE":0,"CLASSIFICATION_TYPE":"U","NORAD_CAT_ID":48981,"ELEMENT_SET_NO":999,"REV_AT_EPOCH":19935,"BSTAR":0.00010407,"MEAN_MOTION_DOT":5.3e-7,"MEAN_MOTION_DDOT":0},{"OBJECT_NAME":"ONEWEB-0264","OBJECT_ID":"2021-060R","EPOCH":"2025-08-15T14:24:48.693312","MEAN_MOTION":13.16571272,"ECCENTRICITY":0.0002052,"INCLINATION":87.902,"RA_OF_ASC_NODE":289.7106,"ARG_OF_PERICENTER":93.2182,"MEAN_ANOMALY":266.9183,"EPHEMERIS_TYPE":0,"CLASSIFICATION_TYPE":"U","NORAD_CAT_ID":48982,"ELEMENT_SET_NO":999,"REV_AT_EPOCH":19938,"BSTAR":-0.0064312,"MEAN_MOTION_DOT":-2.444e-5,"MEAN_MOTION_DDOT":0},{"OBJECT_NAME":"ONEWEB-0266","OBJECT_ID":"2021-060T","EPOCH":"2025-08-15T11:16:40.390752","MEAN_MOTION":13.16594477,"ECCENTRICITY":0.0001835,"INCLINATION":87.9027,"RA_OF_ASC_NODE":289.7123,"ARG_OF_PERICENTER":99.2529,"MEAN_ANOMALY":260.8809,"EPHEMERIS_TYPE":0,"CLASSIFICATION_TYPE":"U","NORAD_CAT_ID":48984,"ELEMENT_SET_NO":999,"REV_AT_EPOCH":19935,"BSTAR":0.00027183,"MEAN_MOTION_DOT":1.17e-6,"MEAN_MOTION_DDOT":0},{"OBJECT_NAME":"ONEWEB-0267","OBJECT_ID":"2021-060U","EPOCH":"2025-08-15T09:43:11.587872","MEAN_MOTION":13.16594632,"ECCENTRICITY":0.0002056,"INCLINATION":87.9028,"RA_OF_ASC_NODE":289.7275,"ARG_OF_PERICENTER":88.5621,"MEAN_ANOMALY":271.5745,"EPHEMERIS_TYPE":0,"CLASSIFICATION_TYPE":"U","NORAD_CAT_ID":48985,"ELEMENT_SET_NO":999,"REV_AT_EPOCH":19935,"BSTAR":0.00011812,"MEAN_MOTION_DOT":5.8e-7,"MEAN_MOTION_DDOT":0},{"OBJECT_NAME":"ONEWEB-0268","OBJECT_ID":"2021-060V","EPOCH":"2025-08-15T14:25:53.440608","MEAN_MOTION":13.16593123,"ECCENTRICITY":0.0002118,"INCLINATION":87.9024,"RA_OF_ASC_NODE":289.6944,"ARG_OF_PERICENTER":95.2736,"MEAN_ANOMALY":264.8636,"EPHEMERIS_TYPE":0,"CLASSIFICATION_TYPE":"U","NORAD_CAT_ID":48986,"ELEMENT_SET_NO":999,"REV_AT_EPOCH":19964,"BSTAR":3.325e-6,"MEAN_MOTION_DOT":1.4e-7,"MEAN_MOTION_DDOT":0},{"OBJECT_NAME":"ONEWEB-0269","OBJECT_ID":"2021-060W","EPOCH":"2025-08-15T10:19:38.440992","MEAN_MOTION":13.16592159,"ECCENTRICITY":0.0002078,"INCLINATION":87.9024,"RA_OF_ASC_NODE":289.7605,"ARG_OF_PERICENTER":99.8624,"MEAN_ANOMALY":260.2741,"EPHEMERIS_TYPE":0,"CLASSIFICATION_TYPE":"U","NORAD_CAT_ID":48987,"ELEMENT_SET_NO":999,"REV_AT_EPOCH":19939,"BSTAR":-0.00023722,"MEAN_MOTION_DOT":-7.8e-7,"MEAN_MOTION_DDOT":0},{"OBJECT_NAME":"ONEWEB-0270","OBJECT_ID":"2021-060X","EPOCH":"2025-08-15T14:23:36.865536","MEAN_MOTION":13.16592608,"ECCENTRICITY":0.0001844,"INCLINATION":87.9025,"RA_OF_ASC_NODE":289.6967,"ARG_OF_PERICENTER":83.6224,"MEAN_ANOMALY":276.5117,"EPHEMERIS_TYPE":0,"CLASSIFICATION_TYPE":"U","NORAD_CAT_ID":48988,"ELEMENT_SET_NO":999,"REV_AT_EPOCH":19945,"BSTAR":-4.3432e-5,"MEAN_MOTION_DOT":-4.0e-8,"MEAN_MOTION_DDOT":0},{"OBJECT_NAME":"ONEWEB-0271","OBJECT_ID":"2021-060Y","EPOCH":"2025-08-15T14:05:23.021664","MEAN_MOTION":13.16593934,"ECCENTRICITY":0.0002052,"INCLINATION":87.9027,"RA_OF_ASC_NODE":289.6828,"ARG_OF_PERICENTER":87.9727,"MEAN_ANOMALY":272.1639,"EPHEMERIS_TYPE":0,"CLASSIFICATION_TYPE":"U","NORAD_CAT_ID":48989,"ELEMENT_SET_NO":999,"REV_AT_EPOCH":19945,"BSTAR":-0.00021337,"MEAN_MOTION_DOT":-6.9e-7,"MEAN_MOTION_DDOT":0},{"OBJECT_NAME":"ONEWEB-0272","OBJECT_ID":"2021-060Z","EPOCH":"2025-08-15T05:30:08.610048","MEAN_MOTION":13.1657634,"ECCENTRICITY":0.0002078,"INCLINATION":87.9025,"RA_OF_ASC_NODE":289.7836,"ARG_OF_PERICENTER":90.3253,"MEAN_ANOMALY":269.8116,"EPHEMERIS_TYPE":0,"CLASSIFICATION_TYPE":"U","NORAD_CAT_ID":48990,"ELEMENT_SET_NO":999,"REV_AT_EPOCH":19935,"BSTAR":0.0095006,"MEAN_MOTION_DOT":3.645e-5,"MEAN_MOTION_DDOT":0}]
