ONEWEB-0255             
1 48973U 21060G   25227.46040382  .00000066  00000+0  13825-3 0  9998
2 48973  87.9022 289.7336 0001876  88.9265 271.2081 13.16592904199436
ONEWEB-0256             
1 48974U 21060H   25227.41053233  .00000094  00000+0  21267-3 0  9993
2 48974  87.9023 289.7542 0002130  97.4336 262.7037 13.16594373199398
ONEWEB-0257             
1 48975U 21060J   25227.59498348 -.00000024  00000+0 -96134-4 0  9994
2 48975  87.9026 289.6850 0002040  90.3183 269.8181 13.16592840199378
ONEWEB-0258             
1 48976U 21060K   25227.59657643 -.00000024  00000+0 -95503-4 0  9999
2 48976  87.9023 289.7088 0001950  97.6975 262.4377 13.16593758199384
ONEWEB-0259             
1 48977U 21060L   25227.59023283 -.00000051  00000+0 -16591-3 0  9996
2 48977  87.9028 289.6952 0001885  92.5184 267.6163 13.16593448199412
ONEWEB-0260             
1 48978U 21060M   25227.42953355 -.00000018  00000+0 -81853-4 0  9998
2 48978  87.9020 289.7519 0002539  94.6552 265.4868 13.16594117199371
ONEWEB-0261             
1 48979U 21060N   25227.47543966  .00000126  00000+0  29665-3 0  9997
2 48979  87.9023 289.7445 0002165  84.3347 275.8031 13.16595398199432
ONEWEB-0262             
1 48980U 21060P   25227.22768032 -.00000025  00000+0 -99614-4 0  9997
2 48980  87.9026 289.7565 0001715  91.6631 268.4697 13.16593667199362
ONEWEB-0263             
1 48981U 21060Q   25227.41133280  .00000053  00000+0  10407-3 0  9991
2 48981  87.9024 289.7431 0001906  82.4844 277.6504 13.16595648199358
ONEWEB-0264             
1 48982U 21060R   25227.60056358 -.00002444  00000+0 -64312-2 0  9994
2 48982  87.9020 289.7106 0002052  93.2182 266.9183 13.16571272199386
ONEWEB-0266             
1 48984U 21060T   25227.46991193  .00000117  00000+0  27183-3 0  9994
2 48984  87.9027 289.7123 0001835  99.2529 260.8809 13.16594477199350
ONEWEB-0267             
1 48985U 21060U   25227.40499523  .00000058  00000+0  11812-3 0  9995
2 48985  87.9028 289.7275 0002056  88.5621 271.5745 13.16594632199351
ONEWEB-0268             
1 48986U 21060V   25227.60131297  .00000014  00000+0  33250-5 0  9993
2 48986  87.9024 289.6944 0002118  95.2736 264.8636 13.16593123199641
ONEWEB-0269             
1 48987U 21060W   25227.43030603 -.00000078  00000+0 -23722-3 0  9997
2 48987  87.9024 289.7605 0002078  99.8624 260.2741 13.16592159199395
ONEWEB-0270             
1 48988U 21060X   25227.59973224 -.00000004  00000+0 -43432-4 0  9990
2 48988  87.9025 289.6967 0001844  83.6224 276.5117 13.16592608199457
ONEWEB-0271             
1 48989U 21060Y   25227.58707201 -.00000069  00000+0 -21337-3 0  9990
2 48989  87.9027 289.6828 0002052  87.9727 272.1639 13.16593934199457
ONEWEB-0272             
1 48990U 21060Z   25227.22926632  .00003645  00000+0  95006-2 0  9998
2 48990  87.9025 289.7836 0002078  90.3253 269.8116 13.16576340199351
